STARLINK-11409 [DTC]    
1 63061U 25035K   25086.32791939  .00005684  00000+0  35494-4 0  9996
2 63061  42.9994 310.5803 0001264 310.4683  49.6077 15.77863712  6571
STARLINK-11412 [DTC]    
1 63062U 25035L   25086.00654111  .00007947  00000+0  48496-4 0  9992
2 63062  42.9993 312.4675 0001743 284.7244  75.3433 15.77851914  6525
STARLINK-11399 [DTC]    
1 63063U 25035M   25086.31815089  .00001094  00000+0  91633-5 0  9999
2 63063  42.9983 310.5017 0002969 262.1337  97.9196 15.77857316  6571
STARLINK-11408 [DTC]    
1 63064U 25035N   25086.31327714  .00004564  00000+0  29065-4 0  9997
2 63064  42.9965 310.4616 0001204 282.9215  77.1520 15.77863824  6574
STARLINK-33635          
1 63065U 25035P   25086.66667824 -.00089840  00000+0 -21654-2 0  9991
2 63065  42.9994 311.5984 0001151 266.9258  53.3269 15.40747632  6605
STARLINK-33622          
1 63066U 25035Q   25086.34223483  .00005148  00000+0  93554-4 0  9993
2 63066  42.9994 313.3671 0002391 264.4124  95.6463 15.50569307  6552
STARLINK-33628          
1 63067U 25035R   25085.95537357 -.00023410  00000+0 -39286-3 0  9993
2 63067  43.0024 315.6231 0002897 282.6974  77.3563 15.50683357  6495
STARLINK-33627          
1 63068U 25035S   25086.34120401  .00004190  00000+0  77250-4 0  9992
2 63068  42.9999 313.3563 0002626 267.5770  92.4790 15.50566492  6540
STARLINK-33620          
1 63069U 25035T   25086.66667824 -.00500573  00000+0 -11807-1 0  9994
2 63069  42.9997 311.5101 0001430 272.8499  82.9879 15.43054845  6599
STARLINK-33604          
1 63070U 25035U   25086.66667824  .00073044  00000+0  17420-2 0  9990
2 63070  42.9997 311.7798 0001951 263.9799 341.6527 15.40650086  6587
STARLINK-33624          
1 63071U 25035V   25086.34085276 -.00000589  00000+0 -42048-5 0  9994
2 63071  42.9987 313.3516 0002447 278.2971  81.7612 15.50582899  6444
STARLINK-33623          
1 63072U 25035W   25086.01878242 -.00057819  00000+0 -10003-2 0  9993
2 63072  43.0006 315.2372 0000773 268.9598  91.1174 15.50205540  6501
STARLINK-33586          
1 63073U 25035X   25086.33982739  .00001093  00000+0  24451-4 0  9991
2 63073  43.0012 313.3438 0001568 287.3485  72.7204 15.50582216  6556
STARLINK-33605          
1 63074U 25035Y   25086.33947600 -.00005842  00000+0 -93739-4 0  9993
2 63074  43.0003 313.3416 0001320 292.7045  67.3676 15.50606619  6547
STARLINK-32839          
1 63077U 25037A   25086.66667824 -.01494410  00000+0 -32283-1 0  9999
2 63077  69.9998 160.7391 0003276 278.9592 252.7355 15.47245362  6286
STARLINK-32821          
1 63078U 25037B   25086.50001157  .00047228  00000+0  76632-3 0  9990
2 63078  70.0000 161.1760 0003361 272.9183  64.8367 15.52501032  6015
STARLINK-32817          
1 63079U 25037C   25086.50001157  .00041493  00000+0  67447-3 0  9993
2 63079  69.9999 161.1738 0003310 266.1962  73.4828 15.52485542  6069
STARLINK-32906          
1 63080U 25037D   25086.66667824  .00065311  00000+0  10565-2 0  9994
2 63080  69.9998 160.7126 0003470 271.6044 283.1292 15.52495380  6331
STARLINK-32895          
1 63081U 25037E   25086.66667824 -.01451743  00000+0 -26290-1 0  9997
2 63081  69.9997 160.7152 0003399 271.5649 281.2433 15.52616349  6189
STARLINK-32933          
1 63082U 25037F   25086.50001157  .00039704  00000+0  64563-3 0  9995
2 63082  69.9998 161.1645 0003314 270.5772  76.7712 15.52486413  6012
STARLINK-32932          
1 63083U 25037G   25086.66667824 -.01496205  00000+0 -29860-1 0  9997
2 63083  69.9997 160.7159 0003276 278.4521 273.1720 15.49505062  6136
STARLINK-32908          
1 63084U 25037H   25086.50001157  .00056450  00000+0  91456-3 0  9995
2 63084  69.9999 161.1600 0003408 275.6769  75.4918 15.52495365  6067
STARLINK-32505          
1 63085U 25037J   25086.66667824  .00056512  00000+0  91543-3 0  9998
2 63085  69.9998 160.7058 0003421 270.1722 290.3169 15.52498707  6286
STARLINK-32914          
1 63086U 25037K   25086.50001157  .00041645  00000+0  67701-3 0  9993
2 63086  69.9999 161.1578 0003201 267.7741  85.3228 15.52481818  6013
STARLINK-32918          
1 63087U 25037L   25086.66667824 -.00881925  00000+0 -15576-1 0  9996
2 63087  69.9997 160.6989 0003414 268.7495 297.4324 15.52802494  6330
STARLINK-32912          
1 63088U 25037M   25086.66667824 -.01468890  00000+0 -29086-1 0  9991
2 63088  69.9997 160.6999 0003271 279.2665 285.8432 15.50171322  6337
STARLINK-32910          
1 63089U 25037N   25086.66667824  .00062955  00000+0  10189-2 0  9996
2 63089  69.9997 160.6944 0003222 271.2802 298.7920 15.52493020  6338
STARLINK-32903          
1 63090U 25037P   25086.66667824 -.01488303  00000+0 -35635-1 0  9992
2 63090  69.9999 160.7348 0003274 280.0398 254.1949 15.44247802  5978
STARLINK-32925          
1 63091U 25037Q   25086.50001157  .00033385  00000+0  54329-3 0  9993
2 63091  69.9999 161.1463 0003373 275.0755  87.5950 15.52509490  6067
STARLINK-32924          
1 63092U 25037R   25086.66667824 -.01490305  00000+0 -32604-1 0  9992
2 63092  69.9997 160.7074 0003193 278.4854 279.7486 15.46874624  6332
STARLINK-32900          
1 63093U 25037S   25086.66667824 -.01481459  00000+0 -27759-1 0  9998
2 63093  69.9997 160.6854 0003144 273.6119 303.7724 15.51742263  6135
STARLINK-32927          
1 63094U 25037T   25086.50001157 -.01512135  00000+0 -33579-1 0  9996
2 63094  69.9998 161.1625 0003594 276.4746  71.7520 15.46483081  6012
STARLINK-32907          
1 63095U 25037U   25086.66667824  .00069124  00000+0  11172-2 0  9991
2 63095  69.9997 160.6807 0003311 272.4059 309.1561 15.52502823  6283
STARLINK-32911          
1 63096U 25037V   25086.66667824  .00010232  00000+0  16876-3 0  9995
2 63096  69.9997 160.6784 0003460 274.2749 309.2064 15.52530380  6333
STARLINK-32923          
1 63097U 25037W   25086.66667824 -.01492599  00000+0 -31130-1 0  9997
2 63097  69.9997 160.6847 0003300 278.2437 298.9966 15.48247426  6331
STARLINK-32913          
1 63098U 25037X   25086.66667824  .00062322  00000+0  10086-2 0  9990
2 63098  69.9997 160.6756 0003352 275.1297 310.2771 15.52497297  6282
STARLINK-11629 [DTC]    
1 63104U 25039A   25086.58568395 -.00006512  00000+0 -34622-4 0  9999
2 63104  42.9973 173.6804 0001127 294.6140  65.4612 15.77834166  5698
STARLINK-11624 [DTC]    
1 63105U 25039B   25086.51751536 -.00003990  00000+0 -20085-4 0  9999
2 63105  42.9980 174.0277 0000990 266.0980  93.9777 15.77846385  5670
STARLINK-11584 [DTC]    
1 63106U 25039C   25086.51263737  .00004786  00000+0  30352-4 0  9991
2 63106  42.9964 173.9887 0001303 282.7348  77.3376 15.77853705  5675
STARLINK-11627 [DTC]    
1 63107U 25039D   25086.63435760 -.00010204  00000+0 -55895-4 0  9995
2 63107  42.9989 173.1773 0001469 279.2960  80.7744 15.77833726  5693
STARLINK-11632 [DTC]    
1 63108U 25039E   25086.56616975  .00003348  00000+0  22094-4 0  9991
2 63108  43.0002 173.5239 0002735 279.7269  80.3292 15.77866159  5686
STARLINK-11625 [DTC]    
1 63109U 25039F   25086.56129936  .00005791  00000+0  36130-4 0  9998
2 63109  43.0000 173.4809 0001590 270.5560  89.5128 15.77848985  5684
STARLINK-11601 [DTC]    
1 63110U 25039G   25086.55641986 -.00001028  00000+0 -30307-5 0  9995
2 63110  42.9994 173.4415 0003058 288.4835  71.5703 15.77846750  5681
STARLINK-11630 [DTC]    
1 63111U 25039H   25086.61482775 -.00013013  00000+0 -72065-4 0  9995
2 63111  42.9985 173.0152 0003864 250.3587 109.6867 15.77828415  5696
STARLINK-11590 [DTC]    
1 63112U 25039J   25086.54665873  .00006600  00000+0  40764-4 0  9993
2 63112  42.9959 173.3641 0001779 270.3913  89.6754 15.77854979  5654
STARLINK-11598 [DTC]    
1 63113U 25039K   25086.54178108  .00001491  00000+0  11440-4 0  9996
2 63113  42.9949 173.3231 0002360 266.1366  93.9235 15.77851951  5683
STARLINK-11600 [DTC]    
1 63114U 25039L   25086.53690197  .00001298  00000+0  10330-4 0  9995
2 63114  42.9978 173.2830 0001984 255.3534 104.7117 15.77845497  5686
STARLINK-11597 [DTC]    
1 63115U 25039M   25086.53202063  .00009365  00000+0  56595-4 0  9993
2 63115  42.9991 173.2460 0001566 251.6916 108.3784 15.77865774  4971
STARLINK-11591 [DTC]    
1 63116U 25039N   25086.66667824  .00097136  00000+0  55654-3 0  9995
2 63116  42.9993 172.3561 0001700 265.2728 168.4024 15.77782087  5675
STARLINK-32955          
1 63117U 25039P   25086.66667824  .00109349  00000+0  25918-2 0  9995
2 63117  43.0004 175.7549 0001759 281.6564 219.1668 15.40650853  5671
STARLINK-32945          
1 63118U 25039Q   25086.62933886  .00002247  00000+0  44128-4 0  9991
2 63118  43.0000 175.8061 0004627 244.6092 115.4290 15.50586476  5668
STARLINK-32941          
1 63119U 25039R   25086.24217411  .00003957  00000+0  73225-4 0  9998
2 63119  43.0010 178.0590 0001617 268.9494  91.1180 15.50583949  4897
STARLINK-32942          
1 63120U 25039S   25086.62896662  .00024063  00000+0  41345-3 0  9991
2 63120  42.9991 175.8014 0006324 320.5792  39.4608 15.50648845  5659
STARLINK-32947          
1 63121U 25039T   25086.24200464 -.00041957  00000+0 -71894-3 0  9994
2 63121  42.9948 178.0583 0001976 200.1570 159.9213 15.50352494  5600
STARLINK-32961          
1 63122U 25039U   25086.66667824 -.01467254  00000+0 -34226-1 0  9997
2 63122  43.0003 175.6221 0001133 284.6848 270.5984 15.44400482  5673
STARLINK-32948          
1 63123U 25039V   25086.56320339 -.00016631  00000+0 -27753-3 0  9991
2 63123  43.0001 176.1673 0002102 255.4205 104.6422 15.50649313  5656
STARLINK-32957          
1 63124U 25039W   25086.66667824  .00084660  00000+0  20149-2 0  9992
2 63124  43.0006 175.6939 0001471 276.9753 248.6929 15.40649220  5674
STARLINK-11609 [DTC]    
1 63132U 25043A   25086.74398993  .00007088  00000+0  43538-4 0  9991
2 63132  42.9960 183.1644 0001652 280.6289  79.4395 15.77869644  4887
STARLINK-11604 [DTC]    
1 63133U 25043B   25086.73910131  .00008087  00000+0  49219-4 0  9997
2 63133  42.9944 183.1230 0000759 303.2782  56.8016 15.77888441  4771
